[Satellite]
VERSION=1.1
NAME=GPS BIIRM-5 (PRN 29)
NICKNAME=GPS BIIRM-5 (PRN 29)
TLE1=1 32384U 07062A   18020.55522866 -.00000044  00000-0  00000+0 0  9993
TLE2=2 32384  56.3297  35.2135 0003368  12.1634 179.8223  2.00555402 74006
